[{"OBJECT_NAME":"ONEWEB-0323","OBJECT_ID":"2021-075AH","EPOCH":"2025-11-04T07:02:42.018432","MEAN_MOTION":13.12443867,"ECCENTRICITY":0.00013098,"INCLINATION":87.8971,"RA_OF_ASC_NODE":35.3204,"ARG_OF_PERICENTER":83.0485,"MEAN_ANOMALY":277.0793,"EPHEMERIS_TYPE":0,"CLASSIFICATION_TYPE":"U","NORAD_CAT_ID":49106,"ELEMENT_SET_NO":999,"REV_AT_EPOCH":20505,"BSTAR":-2.7448376e-5,"MEAN_MOTION_DOT":3.0e-8,"MEAN_MOTION_DDOT":0},{"OBJECT_NAME":"ONEWEB-0329","OBJECT_ID":"2021-075AJ","EPOCH":"2025-11-04T04:23:27.682656","MEAN_MOTION":13.17651751,"ECCENTRICITY":0.00017453,"INCLINATION":87.9122,"RA_OF_ASC_NODE":50.6196,"ARG_OF_PERICENTER":95.6823,"MEAN_ANOMALY":264.4507,"EPHEMERIS_TYPE":0,"CLASSIFICATION_TYPE":"U","NORAD_CAT_ID":49107,"ELEMENT_SET_NO":999,"REV_AT_EPOCH":20395,"BSTAR":-0.0002068232,"MEAN_MOTION_DOT":-6.7e-7,"MEAN_MOTION_DDOT":0},{"OBJECT_NAME":"ONEWEB-0330","OBJECT_ID":"2021-075AK","EPOCH":"2025-11-03T17:28:36.423840","MEAN_MOTION":13.17648324,"ECCENTRICITY":0.00018899,"INCLINATION":87.9121,"RA_OF_ASC_NODE":50.7149,"ARG_OF_PERICENTER":93.7385,"MEAN_ANOMALY":266.3963,"EPHEMERIS_TYPE":0,"CLASSIFICATION_TYPE":"U","NORAD_CAT_ID":49108,"ELEMENT_SET_NO":999,"REV_AT_EPOCH":20393,"BSTAR":3.8497959e-5,"MEAN_MOTION_DOT":2.8e-7,"MEAN_MOTION_DDOT":0},{"OBJECT_NAME":"ONEWEB-0292","OBJECT_ID":"2021-083A","EPOCH":"2025-11-04T03:17:11.819904","MEAN_MOTION":13.13470001,"ECCENTRICITY":0.000171,"INCLINATION":87.9014,"RA_OF_ASC_NODE":4.9929,"ARG_OF_PERICENTER":97.3865,"MEAN_ANOMALY":262.7459,"EPHEMERIS_TYPE":0,"CLASSIFICATION_TYPE":"U","NORAD_CAT_ID":49186,"ELEMENT_SET_NO":999,"REV_AT_EPOCH":20138,"BSTAR":0.00049662649,"MEAN_MOTION_DOT":1.94e-6,"MEAN_MOTION_DDOT":0},{"OBJECT_NAME":"ONEWEB-0303","OBJECT_ID":"2021-083B","EPOCH":"2025-11-04T04:16:58.207008","MEAN_MOTION":13.18686861,"ECCENTRICITY":0.00016602,"INCLINATION":87.923,"RA_OF_ASC_NODE":20.1447,"ARG_OF_PERICENTER":97.8447,"MEAN_ANOMALY":262.2874,"EPHEMERIS_TYPE":0,"CLASSIFICATION_TYPE":"U","NORAD_CAT_ID":49187,"ELEMENT_SET_NO":999,"REV_AT_EPOCH":20032,"BSTAR":8.7882855e-5,"MEAN_MOTION_DOT":4.8e-7,"MEAN_MOTION_DDOT":0},{"OBJECT_NAME":"ONEWEB-0306","OBJECT_ID":"2021-083C","EPOCH":"2025-11-04T04:02:43.235808","MEAN_MOTION":13.18686379,"ECCENTRICITY":0.00020167,"INCLINATION":87.9225,"RA_OF_ASC_NODE":20.1316,"ARG_OF_PERICENTER":101.3122,"MEAN_ANOMALY":258.8237,"EPHEMERIS_TYPE":0,"CLASSIFICATION_TYPE":"U","NORAD_CAT_ID":49188,"ELEMENT_SET_NO":999,"REV_AT_EPOCH":20036,"BSTAR":0.00028717078,"MEAN_MOTION_DOT":1.26e-6,"MEAN_MOTION_DDOT":0},{"OBJECT_NAME":"ONEWEB-0307","OBJECT_ID":"2021-083D","EPOCH":"2025-11-04T04:58:21.629856","MEAN_MOTION":13.13471343,"ECCENTRICITY":0.00018751,"INCLINATION":87.901,"RA_OF_ASC_NODE":4.9718,"ARG_OF_PERICENTER":99.6576,"MEAN_ANOMALY":260.4765,"EPHEMERIS_TYPE":0,"CLASSIFICATION_TYPE":"U","NORAD_CAT_ID":49189,"ELEMENT_SET_NO":999,"REV_AT_EPOCH":20139,"BSTAR":-0.00018476525,"MEAN_MOTION_DOT":-5.5e-7,"MEAN_MOTION_DDOT":0},{"OBJECT_NAME":"ONEWEB-0320","OBJECT_ID":"2021-083E","EPOCH":"2025-11-04T04:13:07.898304","MEAN_MOTION":13.18606443,"ECCENTRICITY":0.00018162,"INCLINATION":87.9229,"RA_OF_ASC_NODE":20.1596,"ARG_OF_PERICENTER":100.2995,"MEAN_ANOMALY":259.8342,"EPHEMERIS_TYPE":0,"CLASSIFICATION_TYPE":"U","NORAD_CAT_ID":49190,"ELEMENT_SET_NO":999,"REV_AT_EPOCH":20032,"BSTAR":0.00015237953,"MEAN_MOTION_DOT":7.3e-7,"MEAN_MOTION_DDOT":0},{"OBJECT_NAME":"ONEWEB-0321","OBJECT_ID":"2021-083F","EPOCH":"2025-11-04T06:41:48.009696","MEAN_MOTION":13.20772282,"ECCENTRICITY":0.00021969,"INCLINATION":87.9194,"RA_OF_ASC_NODE":319.2884,"ARG_OF_PERICENTER":95.1588,"MEAN_ANOMALY":264.9796,"EPHEMERIS_TYPE":0,"CLASSIFICATION_TYPE":"U","NORAD_CAT_ID":49191,"ELEMENT_SET_NO":999,"REV_AT_EPOCH":20714,"BSTAR":6.0355772e-5,"MEAN_MOTION_DOT":3.8e-7,"MEAN_MOTION_DDOT":0},{"OBJECT_NAME":"ONEWEB-0322","OBJECT_ID":"2021-083G","EPOCH":"2025-11-04T04:52:14.772000","MEAN_MOTION":13.13468138,"ECCENTRICITY":0.00022666,"INCLINATION":87.9019,"RA_OF_ASC_NODE":4.9732,"ARG_OF_PERICENTER":107.6437,"MEAN_ANOMALY":252.494,"EPHEMERIS_TYPE":0,"CLASSIFICATION_TYPE":"U","NORAD_CAT_ID":49192,"ELEMENT_SET_NO":999,"REV_AT_EPOCH":20138,"BSTAR":-0.00046429087,"MEAN_MOTION_DOT":-1.57e-6,"MEAN_MOTION_DDOT":0},{"OBJECT_NAME":"ONEWEB-0324","OBJECT_ID":"2021-083H","EPOCH":"2025-11-04T03:53:13.240320","MEAN_MOTION":13.1868652,"ECCENTRICITY":0.00019026,"INCLINATION":87.9228,"RA_OF_ASC_NODE":20.1401,"ARG_OF_PERICENTER":95.0719,"MEAN_ANOMALY":265.063,"EPHEMERIS_TYPE":0,"CLASSIFICATION_TYPE":"U","NORAD_CAT_ID":49193,"ELEMENT_SET_NO":999,"REV_AT_EPOCH":20034,"BSTAR":8.625514e-5,"MEAN_MOTION_DOT":4.7e-7,"MEAN_MOTION_DDOT":0},{"OBJECT_NAME":"ONEWEB-0325","OBJECT_ID":"2021-083J","EPOCH":"2025-11-04T03:57:57.115296","MEAN_MOTION":13.18686542,"ECCENTRICITY":0.00018574,"INCLINATION":87.9224,"RA_OF_ASC_NODE":20.1578,"ARG_OF_PERICENTER":101.8125,"MEAN_ANOMALY":258.3216,"EPHEMERIS_TYPE":0,"CLASSIFICATION_TYPE":"U","NORAD_CAT_ID":49194,"ELEMENT_SET_NO":999,"REV_AT_EPOCH":20035,"BSTAR":0.00028896267,"MEAN_MOTION_DOT":1.27e-6,"MEAN_MOTION_DDOT":0},{"OBJECT_NAME":"ONEWEB-0326","OBJECT_ID":"2021-083K","EPOCH":"2025-11-04T04:19:32.101824","MEAN_MOTION":13.18686206,"ECCENTRICITY":0.00014571,"INCLINATION":87.9228,"RA_OF_ASC_NODE":20.1425,"ARG_OF_PERICENTER":100.2793,"MEAN_ANOMALY":259.8504,"EPHEMERIS_TYPE":0,"CLASSIFICATION_TYPE":"U","NORAD_CAT_ID":49195,"ELEMENT_SET_NO":999,"REV_AT_EPOCH":20034,"BSTAR":0.00017975246,"MEAN_MOTION_DOT":8.4e-7,"MEAN_MOTION_DDOT":0},{"OBJECT_NAME":"ONEWEB-0327","OBJECT_ID":"2021-083L","EPOCH":"2025-11-04T04:19:08.882688","MEAN_MOTION":13.1868701,"ECCENTRICITY":0.00014579,"INCLINATION":87.9217,"RA_OF_ASC_NODE":20.165,"ARG_OF_PERICENTER":105.0711,"MEAN_ANOMALY":255.0582,"EPHEMERIS_TYPE":0,"CLASSIFICATION_TYPE":"U","NORAD_CAT_ID":49196,"ELEMENT_SET_NO":999,"REV_AT_EPOCH":20036,"BSTAR":0.00019942783,"MEAN_MOTION_DOT":9.2e-7,"MEAN_MOTION_DDOT":0},{"OBJECT_NAME":"ONEWEB-0328","OBJECT_ID":"2021-083M","EPOCH":"2025-11-04T04:37:38.225856","MEAN_MOTION":13.13469609,"ECCENTRICITY":0.00018877,"INCLINATION":87.903,"RA_OF_ASC_NODE":4.918,"ARG_OF_PERICENTER":94.2199,"MEAN_ANOMALY":265.9146,"EPHEMERIS_TYPE":0,"CLASSIFICATION_TYPE":"U","NORAD_CAT_ID":49197,"ELEMENT_SET_NO":999,"REV_AT_EPOCH":20136,"BSTAR":-0.00081650491,"MEAN_MOTION_DOT":-2.85e-6,"MEAN_MOTION_DDOT":0},{"OBJECT_NAME":"ONEWEB-0331","OBJECT_ID":"2021-083N","EPOCH":"2025-11-04T04:09:50.964192","MEAN_MOTION":13.18686331,"ECCENTRICITY":0.0001537,"INCLINATION":87.9227,"RA_OF_ASC_NODE":20.1363,"ARG_OF_PERICENTER":92.3755,"MEAN_ANOMALY":267.7553,"EPHEMERIS_TYPE":0,"CLASSIFICATION_TYPE":"U","NORAD_CAT_ID":49198,"ELEMENT_SET_NO":999,"REV_AT_EPOCH":20035,"BSTAR":0.00024063322,"MEAN_MOTION_DOT":1.08e-6,"MEAN_MOTION_DDOT":0},{"OBJECT_NAME":"ONEWEB-0333","OBJECT_ID":"2021-083P","EPOCH":"2025-11-04T04:30:18.780768","MEAN_MOTION":13.13468491,"ECCENTRICITY":0.00018171,"INCLINATION":87.9025,"RA_OF_ASC_NODE":4.9805,"ARG_OF_PERICENTER":100.5365,"MEAN_ANOMALY":259.5969,"EPHEMERIS_TYPE":0,"CLASSIFICATION_TYPE":"U","NORAD_CAT_ID":49199,"ELEMENT_SET_NO":999,"REV_AT_EPOCH":20137,"BSTAR":-0.0012128353,"MEAN_MOTION_DOT":-4.3e-6,"MEAN_MOTION_DDOT":0}]
