ONEWEB-0323             
1 49106U 21075AH  25308.29354188  .00000003  00000+0 -27448-4 0  9995
2 49106  87.8971  35.3204 0001309  83.0485 277.0793 13.12443867205056
ONEWEB-0329             
1 49107U 21075AJ  25308.18295929 -.00000067  00000+0 -20682-3 0  9994
2 49107  87.9122  50.6196 0001745  95.6823 264.4507 13.17651751203953
ONEWEB-0330             
1 49108U 21075AK  25307.72819935  .00000028  00000+0  38498-4 0  9993
2 49108  87.9121  50.7149 0001889  93.7385 266.3963 13.17648324203930
ONEWEB-0292             
1 49186U 21083A   25308.13694236  .00000194  00000+0  49663-3 0  9998
2 49186  87.9014   4.9929 0001710  97.3865 262.7459 13.13470001201388
ONEWEB-0303             
1 49187U 21083B   25308.17845147  .00000048  00000+0  87883-4 0  9997
2 49187  87.9230  20.1447 0001660  97.8447 262.2874 13.18686861200326
ONEWEB-0306             
1 49188U 21083C   25308.16855597  .00000126  00000+0  28717-3 0  9994
2 49188  87.9225  20.1316 0002016 101.3122 258.8237 13.18686379200365
ONEWEB-0307             
1 49189U 21083D   25308.20719479 -.00000055  00000+0 -18477-3 0  9993
2 49189  87.9010   4.9718 0001875  99.6576 260.4765 13.13471343201395
ONEWEB-0320             
1 49190U 21083E   25308.17578586  .00000073  00000+0  15238-3 0  9993
2 49190  87.9229  20.1596 0001816 100.2995 259.8342 13.18606443200323
ONEWEB-0321             
1 49191U 21083F   25308.27902789  .00000038  00000+0  60356-4 0  9994
2 49191  87.9194 319.2884 0002196  95.1588 264.9796 13.20772282207144
ONEWEB-0322             
1 49192U 21083G   25308.20294875 -.00000157  00000+0 -46429-3 0  9996
2 49192  87.9019   4.9732 0002266 107.6437 252.4940 13.13468138201388
ONEWEB-0324             
1 49193U 21083H   25308.16195880  .00000047  00000+0  86255-4 0  9996
2 49193  87.9228  20.1401 0001902  95.0719 265.0630 13.18686520200346
ONEWEB-0325             
1 49194U 21083J   25308.16524439  .00000127  00000+0  28896-3 0  9998
2 49194  87.9224  20.1578 0001857 101.8125 258.3216 13.18686542200354
ONEWEB-0326             
1 49195U 21083K   25308.18023266  .00000084  00000+0  17975-3 0  9991
2 49195  87.9228  20.1425 0001457 100.2793 259.8504 13.18686206200342
ONEWEB-0327             
1 49196U 21083L   25308.17996392  .00000092  00000+0  19943-3 0  9996
2 49196  87.9217  20.1650 0001457 105.0711 255.0582 13.18687010200364
ONEWEB-0328             
1 49197U 21083M   25308.19280354 -.00000285  00000+0 -81650-3 0  9993
2 49197  87.9030   4.9180 0001887  94.2199 265.9146 13.13469609201366
ONEWEB-0331             
1 49198U 21083N   25308.17350653  .00000108  00000+0  24063-3 0  9999
2 49198  87.9227  20.1363 0001537  92.3755 267.7553 13.18686331200355
ONEWEB-0333             
1 49199U 21083P   25308.18771737 -.00000430  00000+0 -12128-2 0  9999
2 49199  87.9025   4.9805 0001817 100.5365 259.5969 13.13468491201376
